GPS BIII-3  (PRN 23)    
1 45854U 20041A   26087.70647736 -.00000082  00000+0  00000+0 0  9995
2 45854  56.6214  32.0661 0061658 205.2530 331.0390  2.00560091 42427
